{
  "type": "FeatureCollection",
  "features": [
    {
      "type": "Feature",
      "properties": {
        "norad_id": 34079,
        "name": "IRIDIUM 33 DEB",
        "group": "iridium-33-debris",
        "lat": 16.432935444439988,
        "lon": 6.715835269141184,
        "alt_km": 615.5248852667701,
        "timestamp": "2025-12-19T08:58:49.721899+00:00",
        "meta_object_name": "IRIDIUM 33 DEB",
        "meta_object_id": "1997-051CN",
        "meta_epoch": "2025-12-18T08:55:11.182080",
        "meta_mean_motion": 14.83670039,
        "meta_eccentricity": 0.00048742,
        "meta_inclination": 86.3769,
        "meta_ra_of_asc_node": 6.101,
        "meta_arg_of_pericenter": 348.9111,
        "meta_mean_anomaly": 76.4164,
        "meta_ephemeris_type": 0,
        "meta_classification_type": "U",
        "meta_norad_cat_id": 34079,
        "meta_element_set_no": 999,
        "meta_rev_at_epoch": 89061,
        "meta_bstar": 0.0014010479,
        "meta_mean_motion_dot": 0.00011602,
        "meta_mean_motion_ddot": 0,
        "tle_line1": "1 34079U 97051CN  25352.37165720  .00011602  00000+0  14010-2 0  9990",
        "tle_line2": "2 34079  86.3769   6.1010 0004874 348.9111  76.4164 14.83670039890615"
      },
      "geometry": {
        "type": "Point",
        "coordinates": [
          6.715835269141184,
          16.432935444439988
        ]
      }
    },
    {
      "type": "Feature",
      "properties": {
        "norad_id": 34088,
        "name": "IRIDIUM 33 DEB",
        "group": "iridium-33-debris",
        "lat": -62.90276152570706,
        "lon": 20.57673879941763,
        "alt_km": 603.4925479077265,
        "timestamp": "2025-12-19T08:58:49.721910+00:00",
        "meta_object_name": "IRIDIUM 33 DEB",
        "meta_object_id": "1997-051CX",
        "meta_epoch": "2025-12-18T20:55:48.154368",
        "meta_mean_motion": 14.91652559,
        "meta_eccentricity": 0.0006328,
        "meta_inclination": 86.3844,
        "meta_ra_of_asc_node": 27.9062,
        "meta_arg_of_pericenter": 156.7967,
        "meta_mean_anomaly": 325.6112,
        "meta_ephemeris_type": 0,
        "meta_classification_type": "U",
        "meta_norad_cat_id": 34088,
        "meta_element_set_no": 999,
        "meta_rev_at_epoch": 88833,
        "meta_bstar": 0.0018437504,
        "meta_mean_motion_dot": 0.00018581,
        "meta_mean_motion_ddot": 0,
        "tle_line1": "1 34088U 97051CX  25352.87208512  .00018581  00000+0  18438-2 0  9993",
        "tle_line2": "2 34088  86.3844  27.9062 0006328 156.7967 325.6112 14.91652559888331"
      },
      "geometry": {
        "type": "Point",
        "coordinates": [
          20.57673879941763,
          -62.90276152570706
        ]
      }
    },
    {
      "type": "Feature",
      "properties": {
        "norad_id": 34091,
        "name": "IRIDIUM 33 DEB",
        "group": "iridium-33-debris",
        "lat": -76.22302484183106,
        "lon": -101.0818504824777,
        "alt_km": 606.4560913190589,
        "timestamp": "2025-12-19T08:58:49.721921+00:00",
        "meta_object_name": "IRIDIUM 33 DEB",
        "meta_object_id": "1997-051DA",
        "meta_epoch": "2025-12-18T04:16:47.373312",
        "meta_mean_motion": 14.8221607,
        "meta_eccentricity": 0.00338054,
        "meta_inclination": 86.3422,
        "meta_ra_of_asc_node": 64.3429,
        "meta_arg_of_pericenter": 273.6022,
        "meta_mean_anomaly": 86.1335,
        "meta_ephemeris_type": 0,
        "meta_classification_type": "U",
        "meta_norad_cat_id": 34091,
        "meta_element_set_no": 999,
        "meta_rev_at_epoch": 87947,
        "meta_bstar": 0.0037025527,
        "meta_mean_motion_dot": 0.00029931,
        "meta_mean_motion_ddot": 0,
        "tle_line1": "1 34091U 97051DA  25352.17832608  .00029931  00000+0  37026-2 0  9994",
        "tle_line2": "2 34091  86.3422  64.3429 0033805 273.6022  86.1335 14.82216070879475"
      },
      "geometry": {
        "type": "Point",
        "coordinates": [
          -101.0818504824777,
          -76.22302484183106
        ]
      }
    },
    {
      "type": "Feature",
      "properties": {
        "norad_id": 34097,
        "name": "IRIDIUM 33 DEB",
        "group": "iridium-33-debris",
        "lat": 80.74346878614263,
        "lon": 154.41339969998785,
        "alt_km": 795.3729596226403,
        "timestamp": "2025-12-19T08:58:49.721932+00:00",
        "meta_object_name": "IRIDIUM 33 DEB",
        "meta_object_id": "1997-051DG",
        "meta_epoch": "2025-12-18T12:26:28.365504",
        "meta_mean_motion": 14.34821944,
        "meta_eccentricity": 0.00819543,
        "meta_inclination": 86.2001,
        "meta_ra_of_asc_node": 358.8573,
        "meta_arg_of_pericenter": 343.3176,
        "meta_mean_anomaly": 16.5326,
        "meta_ephemeris_type": 0,
        "meta_classification_type": "U",
        "meta_norad_cat_id": 34097,
        "meta_element_set_no": 999,
        "meta_rev_at_epoch": 87202,
        "meta_bstar": 0.0011048687,
        "meta_mean_motion_dot": 3.274e-05,
        "meta_mean_motion_ddot": 0,
        "tle_line1": "1 34097U 97051DG  25352.51838386  .00003274  00000+0  11049-2 0  9996",
        "tle_line2": "2 34097  86.2001 358.8573 0081954 343.3176  16.5326 14.34821944872027"
      },
      "geometry": {
        "type": "Point",
        "coordinates": [
          154.41339969998785,
          80.74346878614263
        ]
      }
    },
    {
      "type": "Feature",
      "properties": {
        "norad_id": 34145,
        "name": "IRIDIUM 33 DEB",
        "group": "iridium-33-debris",
        "lat": -6.632074172114428,
        "lon": 150.01296658939148,
        "alt_km": 770.5807714303928,
        "timestamp": "2025-12-19T08:58:49.721942+00:00",
        "meta_object_name": "IRIDIUM 33 DEB",
        "meta_object_id": "1997-051DY",
        "meta_epoch": "2025-12-18T08:48:48.486240",
        "meta_mean_motion": 14.42328092,
        "meta_eccentricity": 0.00557365,
        "meta_inclination": 86.2113,
        "meta_ra_of_asc_node": 330.0199,
        "meta_arg_of_pericenter": 75.968,
        "meta_mean_anomaly": 284.7708,
        "meta_ephemeris_type": 0,
        "meta_classification_type": "U",
        "meta_norad_cat_id": 34145,
        "meta_element_set_no": 999,
        "meta_rev_at_epoch": 87719,
        "meta_bstar": 0.00092678493,
        "meta_mean_motion_dot": 3.137e-05,
        "meta_mean_motion_ddot": 0,
        "tle_line1": "1 34145U 97051DY  25352.36722785  .00003137  00000+0  92678-3 0  9994",
        "tle_line2": "2 34145  86.2113 330.0199 0055736  75.9680 284.7708 14.42328092877199"
      },
      "geometry": {
        "type": "Point",
        "coordinates": [
          150.01296658939148,
          -6.632074172114428
        ]
      }
    },
    {
      "type": "Feature",
      "properties": {
        "norad_id": 34146,
        "name": "IRIDIUM 33 DEB",
        "group": "iridium-33-debris",
        "lat": -15.148701357515913,
        "lon": -14.138944502056198,
        "alt_km": 748.8710493755534,
        "timestamp": "2025-12-19T08:58:49.721953+00:00",
        "meta_object_name": "IRIDIUM 33 DEB",
        "meta_object_id": "1997-051DZ",
        "meta_epoch": "2025-12-18T23:22:46.077024",
        "meta_mean_motion": 14.49088603,
        "meta_eccentricity": 0.00260878,
        "meta_inclination": 86.2829,
        "meta_ra_of_asc_node": 347.0462,
        "meta_arg_of_pericenter": 199.8363,
        "meta_mean_anomaly": 219.3623,
        "meta_ephemeris_type": 0,
        "meta_classification_type": "U",
        "meta_norad_cat_id": 34146,
        "meta_element_set_no": 999,
        "meta_rev_at_epoch": 88197,
        "meta_bstar": 0.00067792412,
        "meta_mean_motion_dot": 2.605e-05,
        "meta_mean_motion_ddot": 0,
        "tle_line1": "1 34146U 97051DZ  25352.97414441  .00002605  00000+0  67792-3 0  9997",
        "tle_line2": "2 34146  86.2829 347.0462 0026087 199.8363 219.3623 14.49088603881975"
      },
      "geometry": {
        "type": "Point",
        "coordinates": [
          -14.138944502056198,
          -15.148701357515913
        ]
      }
    },
    {
      "type": "Feature",
      "properties": {
        "norad_id": 34159,
        "name": "IRIDIUM 33 DEB",
        "group": "iridium-33-debris",
        "lat": 12.631910347414879,
        "lon": -135.40710924494363,
        "alt_km": 767.0074735315984,
        "timestamp": "2025-12-19T08:58:49.721963+00:00",
        "meta_object_name": "IRIDIUM 33 DEB",
        "meta_object_id": "1997-051EN",
        "meta_epoch": "2025-12-18T13:50:19.679424",
        "meta_mean_motion": 14.38507625,
        "meta_eccentricity": 0.00259598,
        "meta_inclination": 86.35,
        "meta_ra_of_asc_node": 45.7526,
        "meta_arg_of_pericenter": 267.136,
        "meta_mean_anomaly": 92.6867,
        "meta_ephemeris_type": 0,
        "meta_classification_type": "U",
        "meta_norad_cat_id": 34159,
        "meta_element_set_no": 999,
        "meta_rev_at_epoch": 88043,
        "meta_bstar": 0.0002959983,
        "meta_mean_motion_dot": 9.27e-06,
        "meta_mean_motion_ddot": 0,
        "tle_line1": "1 34159U 97051EN  25352.57661666  .00000927  00000+0  29600-3 0  9991",
        "tle_line2": "2 34159  86.3500  45.7526 0025959 267.1360  92.6867 14.38507625880432"
      },
      "geometry": {
        "type": "Point",
        "coordinates": [
          -135.40710924494363,
          12.631910347414879
        ]
      }
    }
  ]
}